{
  "type": "FeatureCollection",
  "features": [
    {
      "type": "Feature",
      "properties": {
        "norad_id": 66887,
        "name": "STARLINK-35925",
        "group": "last-30-days",
        "lat": 49.20875664466625,
        "lon": 123.873523079711,
        "alt_km": 295.73532053945655,
        "timestamp": "2025-12-14T18:52:54.244341+00:00",
        "meta_object_name": "STARLINK-35925",
        "meta_object_id": "2025-283K",
        "meta_epoch": "2025-12-13T20:00:03.000384",
        "meta_mean_motion": 15.92136944,
        "meta_eccentricity": 7.516e-05,
        "meta_inclination": 53.1552,
        "meta_ra_of_asc_node": 68.3815,
        "meta_arg_of_pericenter": 61.1629,
        "meta_mean_anomaly": 306.5523,
        "meta_ephemeris_type": 0,
        "meta_classification_type": "U",
        "meta_norad_cat_id": 66887,
        "meta_element_set_no": 999,
        "meta_rev_at_epoch": 260,
        "meta_bstar": -0.0039000647,
        "meta_mean_motion_dot": -0.01331738,
        "meta_mean_motion_ddot": 0.00051564318,
        "tle_line1": "1 66887U 25283K   25347.83336806 -.01331738  51564-3 -39001-2 0  9990",
        "tle_line2": "2 66887  53.1552  68.3815 0000751  61.1629 306.5523 15.92136944  2603"
      },
      "geometry": {
        "type": "Point",
        "coordinates": [
          123.873523079711,
          49.20875664466625
        ]
      }
    },
    {
      "type": "Feature",
      "properties": {
        "norad_id": 66888,
        "name": "STARLINK-35919",
        "group": "last-30-days",
        "lat": 50.0940195046766,
        "lon": 127.24594426881576,
        "alt_km": 295.48246195380034,
        "timestamp": "2025-12-14T18:52:54.244351+00:00",
        "meta_object_name": "STARLINK-35919",
        "meta_object_id": "2025-283L",
        "meta_epoch": "2025-12-13T20:00:03.000384",
        "meta_mean_motion": 15.92188598,
        "meta_eccentricity": 7.766e-05,
        "meta_inclination": 53.1552,
        "meta_ra_of_asc_node": 68.3766,
        "meta_arg_of_pericenter": 59.5436,
        "meta_mean_anomaly": 310.3677,
        "meta_ephemeris_type": 0,
        "meta_classification_type": "U",
        "meta_norad_cat_id": 66888,
        "meta_element_set_no": 999,
        "meta_rev_at_epoch": 260,
        "meta_bstar": -0.0039082727,
        "meta_mean_motion_dot": -0.01338057,
        "meta_mean_motion_ddot": 0.00052037209,
        "tle_line1": "1 66888U 25283L   25347.83336806 -.01338057  52037-3 -39083-2 0  9998",
        "tle_line2": "2 66888  53.1552  68.3766 0000776  59.5436 310.3677 15.92188598  2608"
      },
      "geometry": {
        "type": "Point",
        "coordinates": [
          127.24594426881576,
          50.0940195046766
        ]
      }
    },
    {
      "type": "Feature",
      "properties": {
        "norad_id": 66889,
        "name": "STARLINK-35852",
        "group": "last-30-days",
        "lat": 50.98990297706668,
        "lon": 131.29312066392504,
        "alt_km": 295.17337525905623,
        "timestamp": "2025-12-14T18:52:54.244361+00:00",
        "meta_object_name": "STARLINK-35852",
        "meta_object_id": "2025-283M",
        "meta_epoch": "2025-12-13T20:00:03.000384",
        "meta_mean_motion": 15.9224251,
        "meta_eccentricity": 8.792e-05,
        "meta_inclination": 53.1547,
        "meta_ra_of_asc_node": 68.3711,
        "meta_arg_of_pericenter": 57.6557,
        "meta_mean_anomaly": 314.809,
        "meta_ephemeris_type": 0,
        "meta_classification_type": "U",
        "meta_norad_cat_id": 66889,
        "meta_element_set_no": 999,
        "meta_rev_at_epoch": 260,
        "meta_bstar": -0.0039144597,
        "meta_mean_motion_dot": -0.01343881,
        "meta_mean_motion_ddot": 0.00052478319,
        "tle_line1": "1 66889U 25283M   25347.83336806 -.01343881  52478-3 -39145-2 0  9998",
        "tle_line2": "2 66889  53.1547  68.3711 0000879  57.6557 314.8090 15.92242510  2603"
      },
      "geometry": {
        "type": "Point",
        "coordinates": [
          131.29312066392504,
          50.98990297706668
        ]
      }
    },
    {
      "type": "Feature",
      "properties": {
        "norad_id": 66890,
        "name": "STARLINK-35885",
        "group": "last-30-days",
        "lat": 51.70570841310919,
        "lon": 135.26551592897388,
        "alt_km": 295.0075419133618,
        "timestamp": "2025-12-14T18:52:54.244373+00:00",
        "meta_object_name": "STARLINK-35885",
        "meta_object_id": "2025-283N",
        "meta_epoch": "2025-12-13T20:00:03.000384",
        "meta_mean_motion": 15.92296796,
        "meta_eccentricity": 7.932e-05,
        "meta_inclination": 53.1549,
        "meta_ra_of_asc_node": 68.3662,
        "meta_arg_of_pericenter": 60.2491,
        "meta_mean_anomaly": 314.6273,
        "meta_ephemeris_type": 0,
        "meta_classification_type": "U",
        "meta_norad_cat_id": 66890,
        "meta_element_set_no": 999,
        "meta_rev_at_epoch": 260,
        "meta_bstar": -0.0039199407,
        "meta_mean_motion_dot": -0.01349494,
        "meta_mean_motion_ddot": 0.00052906516,
        "tle_line1": "1 66890U 25283N   25347.83336806 -.01349494  52907-3 -39199-2 0  9992",
        "tle_line2": "2 66890  53.1549  68.3662 0000793  60.2491 314.6273 15.92296796  2600"
      },
      "geometry": {
        "type": "Point",
        "coordinates": [
          135.26551592897388,
          51.70570841310919
        ]
      }
    },
    {
      "type": "Feature",
      "properties": {
        "norad_id": 66891,
        "name": "STARLINK-35855",
        "group": "last-30-days",
        "lat": 52.29507415343901,
        "lon": 139.45181662229533,
        "alt_km": 294.85301997995066,
        "timestamp": "2025-12-14T18:52:54.244384+00:00",
        "meta_object_name": "STARLINK-35855",
        "meta_object_id": "2025-283P",
        "meta_epoch": "2025-12-13T20:00:03.000384",
        "meta_mean_motion": 15.92356076,
        "meta_eccentricity": 7.552e-05,
        "meta_inclination": 53.155,
        "meta_ra_of_asc_node": 68.3612,
        "meta_arg_of_pericenter": 62.3353,
        "meta_mean_anomaly": 315.0219,
        "meta_ephemeris_type": 0,
        "meta_classification_type": "U",
        "meta_norad_cat_id": 66891,
        "meta_element_set_no": 999,
        "meta_rev_at_epoch": 260,
        "meta_bstar": -0.0039482639,
        "meta_mean_motion_dot": -0.01363277,
        "meta_mean_motion_ddot": 0.000539271,
        "tle_line1": "1 66891U 25283P   25347.83336806 -.01363277  53927-3 -39483-2 0  9997",
        "tle_line2": "2 66891  53.1550  68.3612 0000755  62.3353 315.0219 15.92356076  2609"
      },
      "geometry": {
        "type": "Point",
        "coordinates": [
          139.45181662229533,
          52.29507415343901
        ]
      }
    },
    {
      "type": "Feature",
      "properties": {
        "norad_id": 66892,
        "name": "STARLINK-35883",
        "group": "last-30-days",
        "lat": 52.722762977792215,
        "lon": 143.6240277535855,
        "alt_km": 294.54890031512787,
        "timestamp": "2025-12-14T18:52:54.244394+00:00",
        "meta_object_name": "STARLINK-35883",
        "meta_object_id": "2025-283Q",
        "meta_epoch": "2025-12-13T20:00:03.000384",
        "meta_mean_motion": 15.924031,
        "meta_eccentricity": 8.775e-05,
        "meta_inclination": 53.1548,
        "meta_ra_of_asc_node": 68.3558,
        "meta_arg_of_pericenter": 61.7945,
        "meta_mean_anomaly": 317.9463,
        "meta_ephemeris_type": 0,
        "meta_classification_type": "U",
        "meta_norad_cat_id": 66892,
        "meta_element_set_no": 999,
        "meta_rev_at_epoch": 254,
        "meta_bstar": -0.0039122221,
        "meta_mean_motion_dot": -0.01354269,
        "meta_mean_motion_ddot": 0.00053303467,
        "tle_line1": "1 66892U 25283Q   25347.83336806 -.01354269  53303-3 -39122-2 0  9997",
        "tle_line2": "2 66892  53.1548  68.3558 0000877  61.7945 317.9463 15.92403100  2547"
      },
      "geometry": {
        "type": "Point",
        "coordinates": [
          143.6240277535855,
          52.722762977792215
        ]
      }
    },
    {
      "type": "Feature",
      "properties": {
        "norad_id": 66893,
        "name": "STARLINK-36033",
        "group": "last-30-days",
        "lat": 52.99112558396343,
        "lon": 147.6578889546054,
        "alt_km": 294.38615419234793,
        "timestamp": "2025-12-14T18:52:54.244406+00:00",
        "meta_object_name": "STARLINK-36033",
        "meta_object_id": "2025-283R",
        "meta_epoch": "2025-12-13T20:00:03.000384",
        "meta_mean_motion": 15.92458112,
        "meta_eccentricity": 9.305e-05,
        "meta_inclination": 53.1547,
        "meta_ra_of_asc_node": 68.3512,
        "meta_arg_of_pericenter": 60.1762,
        "meta_mean_anomaly": 321.8521,
        "meta_ephemeris_type": 0,
        "meta_classification_type": "U",
        "meta_norad_cat_id": 66893,
        "meta_element_set_no": 999,
        "meta_rev_at_epoch": 260,
        "meta_bstar": -0.0039283689,
        "meta_mean_motion_dot": -0.01363658,
        "meta_mean_motion_ddot": 0.00054008228,
        "tle_line1": "1 66893U 25283R   25347.83336806 -.01363658  54008-3 -39284-2 0  9992",
        "tle_line2": "2 66893  53.1547  68.3512 0000930  60.1762 321.8521 15.92458112  2606"
      },
      "geometry": {
        "type": "Point",
        "coordinates": [
          147.6578889546054,
          52.99112558396343
        ]
      }
    }
  ]
}